ONEWEB-0628             
1 55169U 23004AF  25134.83614353 -.00000262  00000+0 -76451-3 0  9990
2 55169  87.8885  69.8850 0002611  70.9736 289.1675 13.12442608115781
ONEWEB-0629             
1 55170U 23004AG  25134.82828226  .00000007  00000+0 -15488-4 0  9997
2 55170  87.9067  85.1926 0002072  71.3237 288.8119 13.17651205115120
ONEWEB-0631             
1 55171U 23004AH  25134.82529148  .00000055  00000+0  10601-3 0  9992
2 55171  87.9161  54.6021 0002317  91.3723 268.7674 13.18686685117178
ONEWEB-0709             
1 55172U 23004AJ  25134.85889793 -.00000404  00000+0 -11761-2 0  9998
2 55172  87.8816 100.4932 0002144 110.0488 250.0871 13.11416963113667
ONEWEB-0710             
1 55173U 23004AK  25134.84262826  .00000017  00000+0  11047-4 0  9997
2 55173  87.9050  85.2013 0002153  81.9372 278.2004 13.17646801115122
ONEWEB-0711             
1 55174U 23004AL  25134.83008798  .00000181  00000+0  47494-3 0  9999
2 55174  87.8812 100.4666 0002809  78.6032 281.5412 13.11415050113623
ONEWEB-0713             
1 55175U 23004AM  25134.84872841 -.00000488  00000+0 -14131-2 0  9992
2 55175  87.8816 100.4706 0002307  81.7334 278.4056 13.11415458113616
ONEWEB-0715             
1 55176U 23004AN  25134.84363661 -.00000384  00000+0 -11207-2 0  9994
2 55176  87.8814 100.4720 0002198  93.2327 266.9052 13.11416298113654
